{"type": "FeatureCollection", "features": [ {"type": "Feature", "properties": {"norad_id": 35288, "name": "COSMOS 2251 DEB", "group": "cosmos-2251-debris", "lat": -1.2803428760842468, "lon": -172.20471596324188, "alt_km": 663.9371079215134, "timestamp": "2025-12-16T17:51:11.328361+00:00", "meta": {"OBJECT_NAME": "COSMOS 2251 DEB", "OBJECT_ID": "1993-036AJS", "EPOCH": "2025-12-15T08:15:30.303072", "MEAN_MOTION": 14.65486547, "ECCENTRICITY": 0.00393272, "INCLINATION": 73.9514, "RA_OF_ASC_NODE": 10.134, "ARG_OF_PERICENTER": 243.2869, "MEAN_ANOMALY": 116.4271, "EPHEMERIS_TYPE": 0, "CLASSIFICATION_TYPE": "U", "NORAD_CAT_ID": 35288, "ELEMENT_SET_NO": 999, "REV_AT_EPOCH": 87916, "BSTAR": 0.00067125427, "MEAN_MOTION_DOT": 3.647e-05, "MEAN_MOTION_DDOT": 0}, "tle": {"line1": "1 35288U 93036AJS 25349.34410073  .00003647  00000+0  67125-3 0  9995", "line2": "2 35288  73.9514  10.1340 0039327 243.2869 116.4271 14.65486547879167"}}, "geometry": {"type": "Point", "coordinates": [-172.20471596324188, -1.2803428760842468]}}, {"type": "Feature", "properties": {"norad_id": 35290, "name": "COSMOS 2251 DEB", "group": "cosmos-2251-debris", "lat": -41.702597257432, "lon": 36.71898526502965, "alt_km": 634.7658981442291, "timestamp": "2025-12-16T17:51:11.328371+00:00", "meta": {"OBJECT_NAME": "COSMOS 2251 DEB", "OBJECT_ID": "1993-036AJU", "EPOCH": "2025-12-15T14:28:49.986048", "MEAN_MOTION": 14.80473727, "ECCENTRICITY": 0.00019506, "INCLINATION": 74.0058, "RA_OF_ASC_NODE": 53.7782, "ARG_OF_PERICENTER": 195.4132, "MEAN_ANOMALY": 164.6986, "EPHEMERIS_TYPE": 0, "CLASSIFICATION_TYPE": "U", "NORAD_CAT_ID": 35290, "ELEMENT_SET_NO": 999, "REV_AT_EPOCH": 88000, "BSTAR": 0.0012248752, "MEAN_MOTION_DOT": 9.351e-05, "MEAN_MOTION_DDOT": 0}, "tle": {"line1": "1 35290U 93036AJU 25349.60335632  .00009351  00000+0  12249-2 0  9998", "line2": "2 35290  74.0058  53.7782 0001950 195.4132 164.6986 14.80473727880006"}}, "geometry": {"type": "Point", "coordinates": [36.71898526502965, -41.702597257432]}}, {"type": "Feature", "properties": {"norad_id": 35432, "name": "COSMOS 2251 DEB", "group": "cosmos-2251-debris", "lat": 73.59671626688571, "lon": 83.88265915330669, "alt_km": 489.8377301951714, "timestamp": "2025-12-16T17:51:11.328381+00:00", "meta": {"OBJECT_NAME": "COSMOS 2251 DEB", "OBJECT_ID": "1993-036AKA", "EPOCH": "2025-12-14T11:53:53.822112", "MEAN_MOTION": 15.23399104, "ECCENTRICITY": 0.00124915, "INCLINATION": 74.0198, "RA_OF_ASC_NODE": 11.8484, "ARG_OF_PERICENTER": 339.2428, "MEAN_ANOMALY": 20.8262, "EPHEMERIS_TYPE": 0, "CLASSIFICATION_TYPE": "U", "NORAD_CAT_ID": 35432, "ELEMENT_SET_NO": 999, "REV_AT_EPOCH": 87530, "BSTAR": 0.0051316466, "MEAN_MOTION_DOT": 0.00124451, "MEAN_MOTION_DDOT": 0}, "tle": {"line1": "1 35432U 93036AKA 25348.49576183  .00124451  00000+0  51316-2 0  9997", "line2": "2 35432  74.0198  11.8484 0012491 339.2428  20.8262 15.23399104875302"}}, "geometry": {"type": "Point", "coordinates": [83.88265915330669, 73.59671626688571]}}, {"type": "Feature", "properties": {"norad_id": 35433, "name": "COSMOS 2251 DEB", "group": "cosmos-2251-debris", "lat": 61.96616793393756, "lon": 3.6380594896666065, "alt_km": 755.8822215942919, "timestamp": "2025-12-16T17:51:11.328392+00:00", "meta": {"OBJECT_NAME": "COSMOS 2251 DEB", "OBJECT_ID": "1993-036AKB", "EPOCH": "2025-12-10T18:27:52.031808", "MEAN_MOTION": 14.34742553, "ECCENTRICITY": 0.00254013, "INCLINATION": 74.0339, "RA_OF_ASC_NODE": 342.0559, "ARG_OF_PERICENTER": 37.4572, "MEAN_ANOMALY": 142.4072, "EPHEMERIS_TYPE": 0, "CLASSIFICATION_TYPE": "U", "NORAD_CAT_ID": 35433, "ELEMENT_SET_NO": 999, "REV_AT_EPOCH": 86552, "BSTAR": 0.00041847558, "MEAN_MOTION_DOT": 1.164e-05, "MEAN_MOTION_DDOT": 0}, "tle": {"line1": "1 35433U 93036AKB 25344.76935222  .00001164  00000+0  41848-3 0  9992", "line2": "2 35433  74.0339 342.0559 0025401  37.4572 142.4072 14.34742553865528"}}, "geometry": {"type": "Point", "coordinates": [3.6380594896666065, 61.96616793393756]}}, {"type": "Feature", "properties": {"norad_id": 35434, "name": "COSMOS 2251 DEB", "group": "cosmos-2251-debris", "lat": -28.960291393560002, "lon": 35.512094265712875, "alt_km": 785.6946288631643, "timestamp": "2025-12-16T17:51:11.328402+00:00", "meta": {"OBJECT_NAME": "COSMOS 2251 DEB", "OBJECT_ID": "1993-036AKC", "EPOCH": "2025-12-13T21:29:58.278624", "MEAN_MOTION": 14.25692247, "ECCENTRICITY": 0.00874643, "INCLINATION": 74.0404, "RA_OF_ASC_NODE": 211.5388, "ARG_OF_PERICENTER": 282.0357, "MEAN_ANOMALY": 77.0999, "EPHEMERIS_TYPE": 0, "CLASSIFICATION_TYPE": "U", "NORAD_CAT_ID": 35434, "ELEMENT_SET_NO": 999, "REV_AT_EPOCH": 86134, "BSTAR": 0.00076141319, "MEAN_MOTION_DOT": 1.854e-05, "MEAN_MOTION_DDOT": 0}, "tle": {"line1": "1 35434U 93036AKC 25347.89581341  .00001854  00000+0  76141-3 0  9999", "line2": "2 35434  74.0404 211.5388 0087464 282.0357  77.0999 14.25692247861349"}}, "geometry": {"type": "Point", "coordinates": [35.512094265712875, -28.960291393560002]}}, {"type": "Feature", "properties": {"norad_id": 35435, "name": "COSMOS 2251 DEB", "group": "cosmos-2251-debris", "lat": 73.22168789491742, "lon": 168.18255963553014, "alt_km": 627.8182625022928, "timestamp": "2025-12-16T17:51:11.328412+00:00", "meta": {"OBJECT_NAME": "COSMOS 2251 DEB", "OBJECT_ID": "1993-036AKD", "EPOCH": "2025-12-15T01:40:55.350912", "MEAN_MOTION": 14.78555349, "ECCENTRICITY": 0.00077045, "INCLINATION": 74.0104, "RA_OF_ASC_NODE": 99.4797, "ARG_OF_PERICENTER": 193.6881, "MEAN_ANOMALY": 345.6328, "EPHEMERIS_TYPE": 0, "CLASSIFICATION_TYPE": "U", "NORAD_CAT_ID": 35435, "ELEMENT_SET_NO": 999, "REV_AT_EPOCH": 87573, "BSTAR": 0.0012569511, "MEAN_MOTION_DOT": 9.173e-05, "MEAN_MOTION_DDOT": 0}, "tle": {"line1": "1 35435U 93036AKD 25349.07008508  .00009173  00000+0  12570-2 0  9998", "line2": "2 35435  74.0104  99.4797 0007704 193.6881 345.6328 14.78555349875739"}}, "geometry": {"type": "Point", "coordinates": [168.18255963553014, 73.22168789491742]}}, {"type": "Feature", "properties": {"norad_id": 35439, "name": "COSMOS 2251 DEB", "group": "cosmos-2251-debris", "lat": -35.24016692150427, "lon": -40.43936850015317, "alt_km": 888.2667379064187, "timestamp": "2025-12-16T17:51:11.328423+00:00", "meta": {"OBJECT_NAME": "COSMOS 2251 DEB", "OBJECT_ID": "1993-036AKH", "EPOCH": "2025-12-14T03:35:04.308288", "MEAN_MOTION": 13.92816223, "ECCENTRICITY": 0.02421462, "INCLINATION": 74.018, "RA_OF_ASC_NODE": 132.3236, "ARG_OF_PERICENTER": 301.3061, "MEAN_ANOMALY": 233.8403, "EPHEMERIS_TYPE": 0, "CLASSIFICATION_TYPE": "U", "NORAD_CAT_ID": 35439, "ELEMENT_SET_NO": 999, "REV_AT_EPOCH": 83980, "BSTAR": 0.0018477357, "MEAN_MOTION_DOT": 3.02e-05, "MEAN_MOTION_DDOT": 0}, "tle": {"line1": "1 35439U 93036AKH 25348.14935542  .00003020  00000+0  18477-2 0  9993", "line2": "2 35439  74.0180 132.3236 0242146 301.3061 233.8403 13.92816223839807"}}, "geometry": {"type": "Point", "coordinates": [-40.43936850015317, -35.24016692150427]}}, {"type": "Feature", "properties": {"norad_id": 35440, "name": "COSMOS 2251 DEB", "group": "cosmos-2251-debris", "lat": -52.31437753488819, "lon": 178.0852614053514, "alt_km": 631.3272536205104, "timestamp": "2025-12-16T17:51:11.328433+00:00", "meta": {"OBJECT_NAME": "COSMOS 2251 DEB", "OBJECT_ID": "1993-036AKJ", "EPOCH": "2025-12-15T07:46:28.648416", "MEAN_MOTION": 14.68828741, "ECCENTRICITY": 0.00694074, "INCLINATION": 74.0146, "RA_OF_ASC_NODE": 202.6185, "ARG_OF_PERICENTER": 342.923, "MEAN_ANOMALY": 16.9604, "EPHEMERIS_TYPE": 0, "CLASSIFICATION_TYPE": "U", "NORAD_CAT_ID": 35440, "ELEMENT_SET_NO": 999, "REV_AT_EPOCH": 68803, "BSTAR": 0.00030871729, "MEAN_MOTION_DOT": 1.836e-05, "MEAN_MOTION_DDOT": 0}, "tle": {"line1": "1 35440U 93036AKJ 25349.32394269  .00001836  00000+0  30872-3 0  9998", "line2": "2 35440  74.0146 202.6185 0069407 342.9230  16.9604 14.68828741688033"}}, "geometry": {"type": "Point", "coordinates": [178.0852614053514, -52.31437753488819]}}, {"type": "Feature", "properties": {"norad_id": 35441, "name": "COSMOS 2251 DEB", "group": "cosmos-2251-debris", "lat": 10.136486005077806, "lon": 107.56039481038404, "alt_km": 661.0791127898701, "timestamp": "2025-12-16T17:51:11.328443+00:00", "meta": {"OBJECT_NAME": "COSMOS 2251 DEB", "OBJECT_ID": "1993-036AKK", "EPOCH": "2025-12-15T03:19:30.492768", "MEAN_MOTION": 14.62637993, "ECCENTRICITY": 0.00365994, "INCLINATION": 74.1346, "RA_OF_ASC_NODE": 293.5313, "ARG_OF_PERICENTER": 189.4895, "MEAN_ANOMALY": 170.5586, "EPHEMERIS_TYPE": 0, "CLASSIFICATION_TYPE": "U", "NORAD_CAT_ID": 35441, "ELEMENT_SET_NO": 999, "REV_AT_EPOCH": 87465, "BSTAR": 0.00095338273, "MEAN_MOTION_DOT": 4.868e-05, "MEAN_MOTION_DDOT": 0}, "tle": {"line1": "1 35441U 93036AKK 25349.13854737  .00004868  00000+0  95338-3 0  9995", "line2": "2 35441  74.1346 293.5313 0036599 189.4895 170.5586 14.62637993874658"}}, "geometry": {"type": "Point", "coordinates": [107.56039481038404, 10.136486005077806]}}, {"type": "Feature", "properties": {"norad_id": 35442, "name": "COSMOS 2251 DEB", "group": "cosmos-2251-debris", "lat": 6.690819224648286, "lon": 93.11597862929311, "alt_km": 615.6401012413353, "timestamp": "2025-12-16T17:51:11.328453+00:00", "meta": {"OBJECT_NAME": "COSMOS 2251 DEB", "OBJECT_ID": "1993-036AKL", "EPOCH": "2025-12-15T06:14:28.124736", "MEAN_MOTION": 14.84554813, "ECCENTRICITY": 0.00037066, "INCLINATION": 74.0274, "RA_OF_ASC_NODE": 94.1345, "ARG_OF_PERICENTER": 78.0277, "MEAN_ANOMALY": 282.1317, "EPHEMERIS_TYPE": 0, "CLASSIFICATION_TYPE": "U", "NORAD_CAT_ID": 35442, "ELEMENT_SET_NO": 999, "REV_AT_EPOCH": 87390, "BSTAR": 0.0013919969, "MEAN_MOTION_DOT": 0.00011734, "MEAN_MOTION_DDOT": 0}, "tle": {"line1": "1 35442U 93036AKL 25349.26004774  .00011734  00000+0  13920-2 0  9994", "line2": "2 35442  74.0274  94.1345 0003706  78.0277 282.1317 14.84554813873901"}}, "geometry": {"type": "Point", "coordinates": [93.11597862929311, 6.690819224648286]}}]}